CCSDS_OMM_VERS = 2.0
CREATION_DATE  = 
ORIGINATOR     = 

OBJECT_NAME    = STARLINK-36207
OBJECT_ID      = 2025-293M
CENTER_NAME    = EARTH
REF_FRAME      = TEME
TIME_SYSTEM    = UTC
MEAN_ELEMENT_THEORY = SGP/SGP4

EPOCH          = 2025-12-29T20:00:01.999008
MEAN_MOTION    = 15.61019999
ECCENTRICITY   = .0003179
INCLINATION    = 70.0004
RA_OF_ASC_NODE = 274.6934
ARG_OF_PERICENTER = 262.5800
MEAN_ANOMALY   = 29.5517

EPHEMERIS_TYPE = 0
CLASSIFICATION_TYPE = U
NORAD_CAT_ID   = 67014
ELEMENT_SET_NO = 999
REV_AT_EPOCH   = 291
BSTAR          = -.21785E-1
MEAN_MOTION_DOT = -.1625466E-1
MEAN_MOTION_DDOT = 0

CCSDS_OMM_VERS = 2.0
CREATION_DATE  = 
ORIGINATOR     = 

OBJECT_NAME    = STARLINK-36093
OBJECT_ID      = 2025-293N
CENTER_NAME    = EARTH
REF_FRAME      = TEME
TIME_SYSTEM    = UTC
MEAN_ELEMENT_THEORY = SGP/SGP4

EPOCH          = 2025-12-29T20:00:01.999008
MEAN_MOTION    = 15.60994766
ECCENTRICITY   = .0003266
INCLINATION    = 70.0000
RA_OF_ASC_NODE = 274.6879
ARG_OF_PERICENTER = 261.6633
MEAN_ANOMALY   = 34.5952

EPHEMERIS_TYPE = 0
CLASSIFICATION_TYPE = U
NORAD_CAT_ID   = 67015
ELEMENT_SET_NO = 999
REV_AT_EPOCH   = 285
BSTAR          = -.22075E-1
MEAN_MOTION_DOT = -.1643214E-1
MEAN_MOTION_DDOT = 0

CCSDS_OMM_VERS = 2.0
CREATION_DATE  = 
ORIGINATOR     = 

OBJECT_NAME    = STARLINK-36120
OBJECT_ID      = 2025-293P
CENTER_NAME    = EARTH
REF_FRAME      = TEME
TIME_SYSTEM    = UTC
MEAN_ELEMENT_THEORY = SGP/SGP4

EPOCH          = 2025-12-29T20:00:01.999008
MEAN_MOTION    = 15.61014509
ECCENTRICITY   = .0003189
INCLINATION    = 70.0002
RA_OF_ASC_NODE = 274.6907
ARG_OF_PERICENTER = 261.2650
MEAN_ANOMALY   = 32.8977

EPHEMERIS_TYPE = 0
CLASSIFICATION_TYPE = U
NORAD_CAT_ID   = 67016
ELEMENT_SET_NO = 999
REV_AT_EPOCH   = 285
BSTAR          = -.22056E-1
MEAN_MOTION_DOT = -.1642998E-1
MEAN_MOTION_DDOT = 0

CCSDS_OMM_VERS = 2.0
CREATION_DATE  = 
ORIGINATOR     = 

OBJECT_NAME    = STARLINK-35498
OBJECT_ID      = 2025-293Q
CENTER_NAME    = EARTH
REF_FRAME      = TEME
TIME_SYSTEM    = UTC
MEAN_ELEMENT_THEORY = SGP/SGP4

EPOCH          = 2025-12-29T20:00:01.999008
MEAN_MOTION    = 15.60970573
ECCENTRICITY   = .0003325
INCLINATION    = 69.9999
RA_OF_ASC_NODE = 274.6856
ARG_OF_PERICENTER = 261.4221
MEAN_ANOMALY   = 36.8971

EPHEMERIS_TYPE = 0
CLASSIFICATION_TYPE = U
NORAD_CAT_ID   = 67017
ELEMENT_SET_NO = 999
REV_AT_EPOCH   = 304
BSTAR          = -.21904E-1
MEAN_MOTION_DOT = -.1630684E-1
MEAN_MOTION_DDOT = 0

CCSDS_OMM_VERS = 2.0
CREATION_DATE  = 
ORIGINATOR     = 

OBJECT_NAME    = STARLINK-36106
OBJECT_ID      = 2025-293R
CENTER_NAME    = EARTH
REF_FRAME      = TEME
TIME_SYSTEM    = UTC
MEAN_ELEMENT_THEORY = SGP/SGP4

EPOCH          = 2025-12-29T20:00:01.999008
MEAN_MOTION    = 15.60953146
ECCENTRICITY   = .0003391
INCLINATION    = 69.9997
RA_OF_ASC_NODE = 274.6832
ARG_OF_PERICENTER = 260.4747
MEAN_ANOMALY   = 39.9059

EPHEMERIS_TYPE = 0
CLASSIFICATION_TYPE = U
NORAD_CAT_ID   = 67018
ELEMENT_SET_NO = 999
REV_AT_EPOCH   = 296
BSTAR          = -.21891E-1
MEAN_MOTION_DOT = -.1628897E-1
MEAN_MOTION_DDOT = 0

CCSDS_OMM_VERS = 2.0
CREATION_DATE  = 
ORIGINATOR     = 

OBJECT_NAME    = STARLINK-35688
OBJECT_ID      = 2025-293S
CENTER_NAME    = EARTH
REF_FRAME      = TEME
TIME_SYSTEM    = UTC
MEAN_ELEMENT_THEORY = SGP/SGP4

EPOCH          = 2025-12-29T20:00:01.999008
MEAN_MOTION    = 15.60943642
ECCENTRICITY   = .0003257
INCLINATION    = 70.0000
RA_OF_ASC_NODE = 274.6806
ARG_OF_PERICENTER = 260.8318
MEAN_ANOMALY   = 41.5733

EPHEMERIS_TYPE = 0
CLASSIFICATION_TYPE = U
NORAD_CAT_ID   = 67019
ELEMENT_SET_NO = 999
REV_AT_EPOCH   = 304
BSTAR          = -.22003E-1
MEAN_MOTION_DOT = -.1635621E-1
MEAN_MOTION_DDOT = 0

CCSDS_OMM_VERS = 2.0
CREATION_DATE  = 
ORIGINATOR     = 

OBJECT_NAME    = STARLINK-36172
OBJECT_ID      = 2025-293T
CENTER_NAME    = EARTH
REF_FRAME      = TEME
TIME_SYSTEM    = UTC
MEAN_ELEMENT_THEORY = SGP/SGP4

EPOCH          = 2025-12-29T20:00:01.999008
MEAN_MOTION    = 15.60914141
ECCENTRICITY   = .0003274
INCLINATION    = 70.0000
RA_OF_ASC_NODE = 274.6779
ARG_OF_PERICENTER = 262.4622
MEAN_ANOMALY   = 42.1045

EPHEMERIS_TYPE = 0
CLASSIFICATION_TYPE = U
NORAD_CAT_ID   = 67020
ELEMENT_SET_NO = 999
REV_AT_EPOCH   = 296
BSTAR          = -.22E-1
MEAN_MOTION_DOT = -.163376E-1
MEAN_MOTION_DDOT = 0

CCSDS_OMM_VERS = 2.0
CREATION_DATE  = 
ORIGINATOR     = 

OBJECT_NAME    = STARLINK-36184
OBJECT_ID      = 2025-293U
CENTER_NAME    = EARTH
REF_FRAME      = TEME
TIME_SYSTEM    = UTC
MEAN_ELEMENT_THEORY = SGP/SGP4

EPOCH          = 2025-12-29T20:00:01.999008
MEAN_MOTION    = 15.60906905
ECCENTRICITY   = .0003618
INCLINATION    = 70.0027
RA_OF_ASC_NODE = 274.6751
ARG_OF_PERICENTER = 263.6258
MEAN_ANOMALY   = 43.0400

EPHEMERIS_TYPE = 0
CLASSIFICATION_TYPE = U
NORAD_CAT_ID   = 67021
ELEMENT_SET_NO = 999
REV_AT_EPOCH   = 296
BSTAR          = -.22561E-1
MEAN_MOTION_DOT = -.1670293E-1
MEAN_MOTION_DDOT = 0

CCSDS_OMM_VERS = 2.0
CREATION_DATE  = 
ORIGINATOR     = 

OBJECT_NAME    = STARLINK-36209
OBJECT_ID      = 2025-293V
CENTER_NAME    = EARTH
REF_FRAME      = TEME
TIME_SYSTEM    = UTC
MEAN_ELEMENT_THEORY = SGP/SGP4

EPOCH          = 2025-12-29T20:00:01.999008
MEAN_MOTION    = 15.60855379
ECCENTRICITY   = .000333
INCLINATION    = 70.0005
RA_OF_ASC_NODE = 274.6728
ARG_OF_PERICENTER = 260.1015
MEAN_ANOMALY   = 48.7696

EPHEMERIS_TYPE = 0
CLASSIFICATION_TYPE = U
NORAD_CAT_ID   = 67022
ELEMENT_SET_NO = 999
REV_AT_EPOCH   = 296
BSTAR          = -.21968E-1
MEAN_MOTION_DOT = -.1628444E-1
MEAN_MOTION_DDOT = 0

CCSDS_OMM_VERS = 2.0
CREATION_DATE  = 
ORIGINATOR     = 

OBJECT_NAME    = STARLINK-36191
OBJECT_ID      = 2025-293W
CENTER_NAME    = EARTH
REF_FRAME      = TEME
TIME_SYSTEM    = UTC
MEAN_ELEMENT_THEORY = SGP/SGP4

EPOCH          = 2025-12-29T20:00:01.999008
MEAN_MOTION    = 15.60836282
ECCENTRICITY   = .0003381
INCLINATION    = 70.0004
RA_OF_ASC_NODE = 274.6701
ARG_OF_PERICENTER = 259.7112
MEAN_ANOMALY   = 51.2399

EPHEMERIS_TYPE = 0
CLASSIFICATION_TYPE = U
NORAD_CAT_ID   = 67023
ELEMENT_SET_NO = 999
REV_AT_EPOCH   = 285
BSTAR          = -.21999E-1
MEAN_MOTION_DOT = -.1629466E-1
MEAN_MOTION_DDOT = 0

CCSDS_OMM_VERS = 2.0
CREATION_DATE  = 
ORIGINATOR     = 

OBJECT_NAME    = STARLINK-36192
OBJECT_ID      = 2025-293X
CENTER_NAME    = EARTH
REF_FRAME      = TEME
TIME_SYSTEM    = UTC
MEAN_ELEMENT_THEORY = SGP/SGP4

EPOCH          = 2025-12-29T14:00:03.000384
MEAN_MOTION    = 15.61661547
ECCENTRICITY   = .00034962
INCLINATION    = 69.9995
RA_OF_ASC_NODE = 275.3608
ARG_OF_PERICENTER = 265.7569
MEAN_ANOMALY   = 82.7429

EPHEMERIS_TYPE = 0
CLASSIFICATION_TYPE = U
NORAD_CAT_ID   = 67024
ELEMENT_SET_NO = 999
REV_AT_EPOCH   = 292
BSTAR          = -.20759962E-1
MEAN_MOTION_DOT = -.1592549E-1
MEAN_MOTION_DDOT = 0

CCSDS_OMM_VERS = 2.0
CREATION_DATE  = 
ORIGINATOR     = 

OBJECT_NAME    = STARLINK-36178
OBJECT_ID      = 2025-293Y
CENTER_NAME    = EARTH
REF_FRAME      = TEME
TIME_SYSTEM    = UTC
MEAN_ELEMENT_THEORY = SGP/SGP4

EPOCH          = 2025-12-29T20:00:01.999008
MEAN_MOTION    = 15.60796232
ECCENTRICITY   = .0003311
INCLINATION    = 70.0001
RA_OF_ASC_NODE = 274.6652
ARG_OF_PERICENTER = 260.7127
MEAN_ANOMALY   = 54.4193

EPHEMERIS_TYPE = 0
CLASSIFICATION_TYPE = U
NORAD_CAT_ID   = 67025
ELEMENT_SET_NO = 999
REV_AT_EPOCH   = 296
BSTAR          = -.22098E-1
MEAN_MOTION_DOT = -.163364E-1
MEAN_MOTION_DDOT = 0

