STARLINK-36207          
1 67014U 25293M   25363.83335647 -.01625466  00000+0 -21785-1 0  9992
2 67014  70.0004 274.6934 0003179 262.5800  29.5517 15.61019999  2910
STARLINK-36093          
1 67015U 25293N   25363.83335647 -.01643214  00000+0 -22075-1 0  9997
2 67015  70.0000 274.6879 0003266 261.6633  34.5952 15.60994766  2851
STARLINK-36120          
1 67016U 25293P   25363.83335647 -.01642998  00000+0 -22056-1 0  9995
2 67016  70.0002 274.6907 0003189 261.2650  32.8977 15.61014509  2852
STARLINK-35498          
1 67017U 25293Q   25363.83335647 -.01630684  00000+0 -21904-1 0  9996
2 67017  69.9999 274.6856 0003325 261.4221  36.8971 15.60970573  3047
STARLINK-36106          
1 67018U 25293R   25363.83335647 -.01628897  00000+0 -21891-1 0  9995
2 67018  69.9997 274.6832 0003391 260.4747  39.9059 15.60953146  2963
STARLINK-35688          
1 67019U 25293S   25363.83335647 -.01635621  00000+0 -22003-1 0  9995
2 67019  70.0000 274.6806 0003257 260.8318  41.5733 15.60943642  3040
STARLINK-36172          
1 67020U 25293T   25363.83335647 -.01633760  00000+0 -22000-1 0  9996
2 67020  70.0000 274.6779 0003274 262.4622  42.1045 15.60914141  2961
STARLINK-36184          
1 67021U 25293U   25363.83335647 -.01670293  00000+0 -22561-1 0  9991
2 67021  70.0027 274.6751 0003618 263.6258  43.0400 15.60906905  2965
STARLINK-36209          
1 67022U 25293V   25363.83335647 -.01628444  00000+0 -21968-1 0  9993
2 67022  70.0005 274.6728 0003330 260.1015  48.7696 15.60855379  2967
STARLINK-36191          
1 67023U 25293W   25363.83335647 -.01629466  00000+0 -21999-1 0  9993
2 67023  70.0004 274.6701 0003381 259.7112  51.2399 15.60836282  2855
STARLINK-36192          
1 67024U 25293X   25363.58336806 -.01592549  00000+0 -20760-1 0  9990
2 67024  69.9995 275.3608 0003496 265.7569  82.7429 15.61661547  2928
STARLINK-36178          
1 67025U 25293Y   25363.83335647 -.01633640  00000+0 -22098-1 0  9995
2 67025  70.0001 274.6652 0003311 260.7127  54.4193 15.60796232  2969
